CCSDS_OMM_VERS = 2.0
CREATION_DATE  = 
ORIGINATOR     = 

OBJECT_NAME    = AQUA
OBJECT_ID      = 2002-022A
CENTER_NAME    = EARTH
REF_FRAME      = TEME
TIME_SYSTEM    = UTC
MEAN_ELEMENT_THEORY = SGP/SGP4

EPOCH          = 2026-03-12T13:44:27.596832
MEAN_MOTION    = 14.61985227
ECCENTRICITY   = .00005776
INCLINATION    = 98.4178
RA_OF_ASC_NODE = 38.9900
ARG_OF_PERICENTER = 91.8072
MEAN_ANOMALY   = 40.1679

EPHEMERIS_TYPE = 0
CLASSIFICATION_TYPE = U
NORAD_CAT_ID   = 27424
ELEMENT_SET_NO = 999
REV_AT_EPOCH   = 26915
BSTAR          = .26973622E-3
MEAN_MOTION_DOT = .1303E-4
MEAN_MOTION_DDOT = 0

CCSDS_OMM_VERS = 2.0
CREATION_DATE  = 
ORIGINATOR     = 

OBJECT_NAME    = CZ-4B R/B
OBJECT_ID      = 2002-024C
CENTER_NAME    = EARTH
REF_FRAME      = TEME
TIME_SYSTEM    = UTC
MEAN_ELEMENT_THEORY = SGP/SGP4

EPOCH          = 2026-03-12T15:17:29.067072
MEAN_MOTION    = 14.14548224
ECCENTRICITY   = .00503487
INCLINATION    = 98.8832
RA_OF_ASC_NODE = 125.0288
ARG_OF_PERICENTER = 15.8876
MEAN_ANOMALY   = 137.2936

EPHEMERIS_TYPE = 0
CLASSIFICATION_TYPE = U
NORAD_CAT_ID   = 27432
ELEMENT_SET_NO = 999
REV_AT_EPOCH   = 22965
BSTAR          = .49698956E-4
MEAN_MOTION_DOT = .52E-6
MEAN_MOTION_DDOT = 0

CCSDS_OMM_VERS = 2.0
CREATION_DATE  = 
ORIGINATOR     = 

OBJECT_NAME    = MIDORI II (ADEOS-II)
OBJECT_ID      = 2002-056A
CENTER_NAME    = EARTH
REF_FRAME      = TEME
TIME_SYSTEM    = UTC
MEAN_ELEMENT_THEORY = SGP/SGP4

EPOCH          = 2026-03-12T11:07:59.621664
MEAN_MOTION    = 14.29287756
ECCENTRICITY   = .00014868
INCLINATION    = 98.7770
RA_OF_ASC_NODE = 29.9606
ARG_OF_PERICENTER = 39.5870
MEAN_ANOMALY   = 320.5420

EPHEMERIS_TYPE = 0
CLASSIFICATION_TYPE = U
NORAD_CAT_ID   = 27597
ELEMENT_SET_NO = 999
REV_AT_EPOCH   = 21069
BSTAR          = .17528035E-3
MEAN_MOTION_DOT = .401E-5
MEAN_MOTION_DDOT = 0

CCSDS_OMM_VERS = 2.0
CREATION_DATE  = 
ORIGINATOR     = 

OBJECT_NAME    = H-2A R/B
OBJECT_ID      = 2002-056E
CENTER_NAME    = EARTH
REF_FRAME      = TEME
TIME_SYSTEM    = UTC
MEAN_ELEMENT_THEORY = SGP/SGP4

EPOCH          = 2026-03-12T12:12:38.949696
MEAN_MOTION    = 14.33762953
ECCENTRICITY   = .0070669
INCLINATION    = 98.3206
RA_OF_ASC_NODE = 31.7671
ARG_OF_PERICENTER = 152.3201
MEAN_ANOMALY   = 320.2769

EPHEMERIS_TYPE = 0
CLASSIFICATION_TYPE = U
NORAD_CAT_ID   = 27601
ELEMENT_SET_NO = 999
REV_AT_EPOCH   = 21451
BSTAR          = .1344415E-3
MEAN_MOTION_DOT = .343E-5
MEAN_MOTION_DDOT = 0

CCSDS_OMM_VERS = 2.0
CREATION_DATE  = 
ORIGINATOR     = 

OBJECT_NAME    = CZ-4B R/B
OBJECT_ID      = 2003-049C
CENTER_NAME    = EARTH
REF_FRAME      = TEME
TIME_SYSTEM    = UTC
MEAN_ELEMENT_THEORY = SGP/SGP4

EPOCH          = 2026-03-12T13:07:26.946624
MEAN_MOTION    = 14.55023378
ECCENTRICITY   = .00473543
INCLINATION    = 98.6880
RA_OF_ASC_NODE = 66.5637
ARG_OF_PERICENTER = 221.9948
MEAN_ANOMALY   = 137.7613

EPHEMERIS_TYPE = 0
CLASSIFICATION_TYPE = U
NORAD_CAT_ID   = 28059
ELEMENT_SET_NO = 999
REV_AT_EPOCH   = 18701
BSTAR          = .12323049E-3
MEAN_MOTION_DOT = .487E-5
MEAN_MOTION_DDOT = 0

CCSDS_OMM_VERS = 2.0
CREATION_DATE  = 
ORIGINATOR     = 

OBJECT_NAME    = CZ-2C R/B
OBJECT_ID      = 2004-012C
CENTER_NAME    = EARTH
REF_FRAME      = TEME
TIME_SYSTEM    = UTC
MEAN_ELEMENT_THEORY = SGP/SGP4

EPOCH          = 2026-03-12T14:45:27.744480
MEAN_MOTION    = 15.64883992
ECCENTRICITY   = .00130033
INCLINATION    = 97.7223
RA_OF_ASC_NODE = 137.1851
ARG_OF_PERICENTER = 297.7229
MEAN_ANOMALY   = 62.2710

EPHEMERIS_TYPE = 0
CLASSIFICATION_TYPE = U
NORAD_CAT_ID   = 28222
ELEMENT_SET_NO = 999
REV_AT_EPOCH   = 20473
BSTAR          = .60927002E-3
MEAN_MOTION_DOT = .59923E-3
MEAN_MOTION_DDOT = 0

CCSDS_OMM_VERS = 2.0
CREATION_DATE  = 
ORIGINATOR     = 

OBJECT_NAME    = SL-16 R/B
OBJECT_ID      = 2004-021B
CENTER_NAME    = EARTH
REF_FRAME      = TEME
TIME_SYSTEM    = UTC
MEAN_ELEMENT_THEORY = SGP/SGP4

EPOCH          = 2026-03-12T13:38:26.526912
MEAN_MOTION    = 14.14596798
ECCENTRICITY   = .00042454
INCLINATION    = 70.9996
RA_OF_ASC_NODE = 226.4509
ARG_OF_PERICENTER = 5.0357
MEAN_ANOMALY   = 355.0807

EPHEMERIS_TYPE = 0
CLASSIFICATION_TYPE = U
NORAD_CAT_ID   = 28353
ELEMENT_SET_NO = 999
REV_AT_EPOCH   = 12324
BSTAR          = -.1182141E-3
MEAN_MOTION_DOT = -.275E-5
MEAN_MOTION_DDOT = 0

CCSDS_OMM_VERS = 2.0
CREATION_DATE  = 
ORIGINATOR     = 

OBJECT_NAME    = CZ-4B R/B
OBJECT_ID      = 2004-035C
CENTER_NAME    = EARTH
REF_FRAME      = TEME
TIME_SYSTEM    = UTC
MEAN_ELEMENT_THEORY = SGP/SGP4

EPOCH          = 2026-03-12T12:38:38.417856
MEAN_MOTION    = 15.29118459
ECCENTRICITY   = .00307108
INCLINATION    = 97.3503
RA_OF_ASC_NODE = 105.7356
ARG_OF_PERICENTER = 321.0845
MEAN_ANOMALY   = 38.8184

EPHEMERIS_TYPE = 0
CLASSIFICATION_TYPE = U
NORAD_CAT_ID   = 28415
ELEMENT_SET_NO = 999
REV_AT_EPOCH   = 18034
BSTAR          = .30809748E-3
MEAN_MOTION_DOT = .8756E-4
MEAN_MOTION_DDOT = 0

CCSDS_OMM_VERS = 2.0
CREATION_DATE  = 
ORIGINATOR     = 

OBJECT_NAME    = CZ-2C R/B
OBJECT_ID      = 2004-046B
CENTER_NAME    = EARTH
REF_FRAME      = TEME
TIME_SYSTEM    = UTC
MEAN_ELEMENT_THEORY = SGP/SGP4

EPOCH          = 2026-03-12T08:39:02.347776
MEAN_MOTION    = 14.26993127
ECCENTRICITY   = .01400277
INCLINATION    = 98.1980
RA_OF_ASC_NODE = 346.1782
ARG_OF_PERICENTER = 146.5734
MEAN_ANOMALY   = 214.4385

EPHEMERIS_TYPE = 0
CLASSIFICATION_TYPE = U
NORAD_CAT_ID   = 28480
ELEMENT_SET_NO = 999
REV_AT_EPOCH   = 10888
BSTAR          = .67875051E-4
MEAN_MOTION_DOT = .143E-5
MEAN_MOTION_DDOT = 0

CCSDS_OMM_VERS = 2.0
CREATION_DATE  = 
ORIGINATOR     = 

OBJECT_NAME    = ARIANE 5 R/B
OBJECT_ID      = 2004-049H
CENTER_NAME    = EARTH
REF_FRAME      = TEME
TIME_SYSTEM    = UTC
MEAN_ELEMENT_THEORY = SGP/SGP4

EPOCH          = 2026-03-12T11:05:27.303648
MEAN_MOTION    = 14.85271940
ECCENTRICITY   = .00837486
INCLINATION    = 98.2631
RA_OF_ASC_NODE = 240.0229
ARG_OF_PERICENTER = 342.9143
MEAN_ANOMALY   = 16.9254

EPHEMERIS_TYPE = 0
CLASSIFICATION_TYPE = U
NORAD_CAT_ID   = 28499
ELEMENT_SET_NO = 999
REV_AT_EPOCH   = 14620
BSTAR          = .11277115E-3
MEAN_MOTION_DOT = .965E-5
MEAN_MOTION_DDOT = 0

CCSDS_OMM_VERS = 2.0
CREATION_DATE  = 
ORIGINATOR     = 

OBJECT_NAME    = CZ-2D R/B
OBJECT_ID      = 2005-024B
CENTER_NAME    = EARTH
REF_FRAME      = TEME
TIME_SYSTEM    = UTC
MEAN_ELEMENT_THEORY = SGP/SGP4

EPOCH          = 2026-03-12T12:44:59.543808
MEAN_MOTION    = 15.60425058
ECCENTRICITY   = .00054037
INCLINATION    = 97.3601
RA_OF_ASC_NODE = 86.7823
ARG_OF_PERICENTER = 39.5328
MEAN_ANOMALY   = 320.6322

EPHEMERIS_TYPE = 0
CLASSIFICATION_TYPE = U
NORAD_CAT_ID   = 28738
ELEMENT_SET_NO = 999
REV_AT_EPOCH   = 14022
BSTAR          = .54205693E-3
MEAN_MOTION_DOT = .44583E-3
MEAN_MOTION_DDOT = 0

CCSDS_OMM_VERS = 2.0
CREATION_DATE  = 
ORIGINATOR     = 

OBJECT_NAME    = ALOS (DAICHI)
OBJECT_ID      = 2006-002A
CENTER_NAME    = EARTH
REF_FRAME      = TEME
TIME_SYSTEM    = UTC
MEAN_ELEMENT_THEORY = SGP/SGP4

EPOCH          = 2026-03-12T10:19:31.714752
MEAN_MOTION    = 14.69820949
ECCENTRICITY   = .00008386
INCLINATION    = 98.1220
RA_OF_ASC_NODE = 27.3718
ARG_OF_PERICENTER = 60.8746
MEAN_ANOMALY   = 299.2544

EPHEMERIS_TYPE = 0
CLASSIFICATION_TYPE = U
NORAD_CAT_ID   = 28931
ELEMENT_SET_NO = 999
REV_AT_EPOCH   = 7388
BSTAR          = .30644042E-3
MEAN_MOTION_DOT = .1781E-4
MEAN_MOTION_DDOT = 0

