AQUA                    
1 27424U 02022A   26071.57254163  .00001303  00000+0  26974-3 0  9991
2 27424  98.4178  38.9900 0000577  91.8072  40.1679 14.61985227269158
CZ-4B R/B               
1 27432U 02024C   26071.63714198  .00000052  00000+0  49699-4 0  9998
2 27432  98.8832 125.0288 0050348  15.8876 137.2936 14.14548224229659
MIDORI II (ADEOS-II)    
1 27597U 02056A   26071.46388451  .00000401  00000+0  17528-3 0  9998
2 27597  98.7770  29.9606 0001486  39.5870 320.5420 14.29287756210698
H-2A R/B                
1 27601U 02056E   26071.50878414  .00000343  00000+0  13444-3 0  9990
2 27601  98.3206  31.7671 0070669 152.3201 320.2769 14.33762953214518
CZ-4B R/B               
1 28059U 03049C   26071.54683966  .00000487  00000+0  12323-3 0  9995
2 28059  98.6880  66.5637 0047354 221.9948 137.7613 14.55023378187019
CZ-2C R/B               
1 28222U 04012C   26071.61490445  .00059923  00000+0  60927-3 0  9996
2 28222  97.7223 137.1851 0013003 297.7229  62.2710 15.64883992204738
SL-16 R/B               
1 28353U 04021B   26071.56836258 -.00000275  00000+0 -11821-3 0  9998
2 28353  70.9996 226.4509 0004245   5.0357 355.0807 14.14596798123240
CZ-4B R/B               
1 28415U 04035C   26071.52683354  .00008756  00000+0  30810-3 0  9994
2 28415  97.3503 105.7356 0030710 321.0845  38.8184 15.29118459180343
CZ-2C R/B               
1 28480U 04046B   26071.36044384  .00000143  00000+0  67875-4 0  9998
2 28480  98.1980 346.1782 0140027 146.5734 214.4385 14.26993127108880
ARIANE 5 R/B            
1 28499U 04049H   26071.46212157  .00000965  00000+0  11277-3 0  9993
2 28499  98.2631 240.0229 0083748 342.9143  16.9254 14.85271940146209
CZ-2D R/B               
1 28738U 05024B   26071.53124472  .00044583  00000+0  54206-3 0  9996
2 28738  97.3601  86.7823 0005403  39.5328 320.6322 15.60425058140225
ALOS (DAICHI)           
1 28931U 06002A   26071.43022818  .00001781  00000+0  30644-3 0  9991
2 28931  98.1220  27.3718 0000838  60.8746 299.2544 14.69820949 73888
